{
  "type": "FeatureCollection",
  "features": [
    {
      "type": "Feature",
      "properties": {
        "norad_id": 24876,
        "name": "GPS BIIR-2  (PRN 13)",
        "group": "gps-ops",
        "lat": 33.170200784732046,
        "lon": 132.18251575552026,
        "alt_km": 19930.71149654994,
        "timestamp": "2025-12-11T07:02:23.988993+00:00",
        "meta_object_name": "GPS BIIR-2  (PRN 13)",
        "meta_object_id": "1997-035A",
        "meta_epoch": "2025-12-10T17:43:14.127744",
        "meta_mean_motion": 2.00563589,
        "meta_eccentricity": 0.00967572,
        "meta_inclination": 55.8943,
        "meta_ra_of_asc_node": 105.9472,
        "meta_arg_of_pericenter": 57.0036,
        "meta_mean_anomaly": 303.9018,
        "meta_ephemeris_type": 0,
        "meta_classification_type": "U",
        "meta_norad_cat_id": 24876,
        "meta_element_set_no": 999,
        "meta_rev_at_epoch": 20817,
        "meta_bstar": 0,
        "meta_mean_motion_dot": 2.2e-07,
        "meta_mean_motion_ddot": 0,
        "tle_line1": "1 24876U 97035A   25344.73835796  .00000022  00000+0  00000+0 0  9999",
        "tle_line2": "2 24876  55.8943 105.9472 0096757  57.0036 303.9018  2.00563589208176"
      },
      "geometry": {
        "type": "Point",
        "coordinates": [
          132.18251575552026,
          33.170200784732046
        ]
      }
    },
    {
      "type": "Feature",
      "properties": {
        "norad_id": 26360,
        "name": "GPS BIIR-4  (PRN 20)",
        "group": "gps-ops",
        "lat": 36.74397783226371,
        "lon": 175.44884670150256,
        "alt_km": 20210.16771066485,
        "timestamp": "2025-12-11T07:02:23.989019+00:00",
        "meta_object_name": "GPS BIIR-4  (PRN 20)",
        "meta_object_id": "2000-025A",
        "meta_epoch": "2025-12-10T20:16:55.528032",
        "meta_mean_motion": 2.0056782,
        "meta_eccentricity": 0.0038863,
        "meta_inclination": 55.0441,
        "meta_ra_of_asc_node": 26.9144,
        "meta_arg_of_pericenter": 241.8147,
        "meta_mean_anomaly": 288.0709,
        "meta_ephemeris_type": 0,
        "meta_classification_type": "U",
        "meta_norad_cat_id": 26360,
        "meta_element_set_no": 999,
        "meta_rev_at_epoch": 18749,
        "meta_bstar": 0,
        "meta_mean_motion_dot": -9.8e-07,
        "meta_mean_motion_ddot": 0,
        "tle_line1": "1 26360U 00025A   25344.84508713 -.00000098  00000+0  00000+0 0  9994",
        "tle_line2": "2 26360  55.0441  26.9144 0038863 241.8147 288.0709  2.00567820187492"
      },
      "geometry": {
        "type": "Point",
        "coordinates": [
          175.44884670150256,
          36.74397783226371
        ]
      }
    },
    {
      "type": "Feature",
      "properties": {
        "norad_id": 26407,
        "name": "GPS BIIR-5  (PRN 22)",
        "group": "gps-ops",
        "lat": -21.145818962405656,
        "lon": -153.1434014310657,
        "alt_km": 19899.924724497414,
        "timestamp": "2025-12-11T07:02:23.989035+00:00",
        "meta_object_name": "GPS BIIR-5  (PRN 22)",
        "meta_object_id": "2000-040A",
        "meta_epoch": "2025-12-10T20:12:24.039360",
        "meta_mean_motion": 2.00567911,
        "meta_eccentricity": 0.01261207,
        "meta_inclination": 54.8911,
        "meta_ra_of_asc_node": 222.6445,
        "meta_arg_of_pericenter": 301.7739,
        "meta_mean_anomaly": 65.4404,
        "meta_ephemeris_type": 0,
        "meta_classification_type": "U",
        "meta_norad_cat_id": 26407,
        "meta_element_set_no": 999,
        "meta_rev_at_epoch": 18617,
        "meta_bstar": 0,
        "meta_mean_motion_dot": 0,
        "meta_mean_motion_ddot": 0,
        "tle_line1": "1 26407U 00040A   25344.84194490  .00000000  00000+0  00000+0 0  9998",
        "tle_line2": "2 26407  54.8911 222.6445 0126120 301.7739  65.4404  2.00567911186173"
      },
      "geometry": {
        "type": "Point",
        "coordinates": [
          -153.1434014310657,
          -21.145818962405656
        ]
      }
    },
    {
      "type": "Feature",
      "properties": {
        "norad_id": 27663,
        "name": "GPS BIIR-8  (PRN 16)",
        "group": "gps-ops",
        "lat": 50.08737382477368,
        "lon": -14.630195683004116,
        "alt_km": 19967.585102420202,
        "timestamp": "2025-12-11T07:02:23.989049+00:00",
        "meta_object_name": "GPS BIIR-8  (PRN 16)",
        "meta_object_id": "2003-005A",
        "meta_epoch": "2025-12-10T07:26:08.155104",
        "meta_mean_motion": 2.00571007,
        "meta_eccentricity": 0.0147361,
        "meta_inclination": 54.9239,
        "meta_ra_of_asc_node": 222.475,
        "meta_arg_of_pericenter": 51.7666,
        "meta_mean_anomaly": 67.0717,
        "meta_ephemeris_type": 0,
        "meta_classification_type": "U",
        "meta_norad_cat_id": 27663,
        "meta_element_set_no": 999,
        "meta_rev_at_epoch": 16752,
        "meta_bstar": 0,
        "meta_mean_motion_dot": 1e-08,
        "meta_mean_motion_ddot": 0,
        "tle_line1": "1 27663U 03005A   25344.30981661  .00000001  00000+0  00000+0 0  9993",
        "tle_line2": "2 27663  54.9239 222.4750 0147361  51.7666  67.0717  2.00571007167524"
      },
      "geometry": {
        "type": "Point",
        "coordinates": [
          -14.630195683004116,
          50.08737382477368
        ]
      }
    },
    {
      "type": "Feature",
      "properties": {
        "norad_id": 28190,
        "name": "GPS BIIR-11 (PRN 19)",
        "group": "gps-ops",
        "lat": -54.98950669330193,
        "lon": -168.40794084393235,
        "alt_km": 20242.579701470506,
        "timestamp": "2025-12-11T07:02:23.989061+00:00",
        "meta_object_name": "GPS BIIR-11 (PRN 19)",
        "meta_object_id": "2004-009A",
        "meta_epoch": "2025-12-10T22:23:41.078112",
        "meta_mean_motion": 2.00560808,
        "meta_eccentricity": 0.01083229,
        "meta_inclination": 54.9873,
        "meta_ra_of_asc_node": 283.2917,
        "meta_arg_of_pericenter": 167.6172,
        "meta_mean_anomaly": 200.0934,
        "meta_ephemeris_type": 0,
        "meta_classification_type": "U",
        "meta_norad_cat_id": 28190,
        "meta_element_set_no": 999,
        "meta_rev_at_epoch": 15917,
        "meta_bstar": 0,
        "meta_mean_motion_dot": -6.8e-07,
        "meta_mean_motion_ddot": 0,
        "tle_line1": "1 28190U 04009A   25344.93311433 -.00000068  00000+0  00000+0 0  9991",
        "tle_line2": "2 28190  54.9873 283.2917 0108322 167.6172 200.0934  2.00560808159176"
      },
      "geometry": {
        "type": "Point",
        "coordinates": [
          -168.40794084393235,
          -54.98950669330193
        ]
      }
    },
    {
      "type": "Feature",
      "properties": {
        "norad_id": 28474,
        "name": "GPS BIIR-13 (PRN 02)",
        "group": "gps-ops",
        "lat": -25.410253740799575,
        "lon": -46.80181255784004,
        "alt_km": 19756.21017008891,
        "timestamp": "2025-12-11T07:02:23.989073+00:00",
        "meta_object_name": "GPS BIIR-13 (PRN 02)",
        "meta_object_id": "2004-045A",
        "meta_epoch": "2025-12-10T20:11:07.899360",
        "meta_mean_motion": 2.00569385,
        "meta_eccentricity": 0.01707279,
        "meta_inclination": 55.2416,
        "meta_ra_of_asc_node": 332.4821,
        "meta_arg_of_pericenter": 309.1641,
        "meta_mean_anomaly": 52.133,
        "meta_ephemeris_type": 0,
        "meta_classification_type": "U",
        "meta_norad_cat_id": 28474,
        "meta_element_set_no": 999,
        "meta_rev_at_epoch": 15465,
        "meta_bstar": 0,
        "meta_mean_motion_dot": -8.5e-07,
        "meta_mean_motion_ddot": 0,
        "tle_line1": "1 28474U 04045A   25344.84106365 -.00000085  00000+0  00000+0 0  9991",
        "tle_line2": "2 28474  55.2416 332.4821 0170727 309.1641  52.1330  2.00569385154654"
      },
      "geometry": {
        "type": "Point",
        "coordinates": [
          -46.80181255784004,
          -25.410253740799575
        ]
      }
    },
    {
      "type": "Feature",
      "properties": {
        "norad_id": 28874,
        "name": "GPS BIIRM-1 (PRN 17)",
        "group": "gps-ops",
        "lat": -51.79131697113389,
        "lon": -141.86977365475076,
        "alt_km": 19839.136506742132,
        "timestamp": "2025-12-11T07:02:23.989085+00:00",
        "meta_object_name": "GPS BIIRM-1 (PRN 17)",
        "meta_object_id": "2005-038A",
        "meta_epoch": "2025-12-10T14:00:21.521088",
        "meta_mean_motion": 2.00578486,
        "meta_eccentricity": 0.0131701,
        "meta_inclination": 55.0338,
        "meta_ra_of_asc_node": 280.7877,
        "meta_arg_of_pericenter": 293.4518,
        "meta_mean_anomaly": 200.7371,
        "meta_ephemeris_type": 0,
        "meta_classification_type": "U",
        "meta_norad_cat_id": 28874,
        "meta_element_set_no": 999,
        "meta_rev_at_epoch": 14805,
        "meta_bstar": 0,
        "meta_mean_motion_dot": -6.4e-07,
        "meta_mean_motion_ddot": 0,
        "tle_line1": "1 28874U 05038A   25344.58358242 -.00000064  00000+0  00000+0 0  9999",
        "tle_line2": "2 28874  55.0338 280.7877 0131701 293.4518 200.7371  2.00578486148057"
      },
      "geometry": {
        "type": "Point",
        "coordinates": [
          -141.86977365475076,
          -51.79131697113389
        ]
      }
    }
  ]
}